NORAD_CAT_ID,OBJECT_NAME,OBJECT_TYPE,EPOCH,MEAN_MOTION,ECCENTRICITY,INCLINATION,RA_OF_ASC_NODE,ARG_OF_PERICENTER,MEAN_ANOMALY,BSTAR,MEAN_MOTION_DOT,MEAN_MOTION_DDOT,TLE_LINE0,TLE_LINE1,TLE_LINE2,SEMIMAJOR_AXIS,PERIOD,APOGEE,PERIGEE,DECAYED
55944.0,STARLINK-5926,PAYLOAD,2023-11-14 13:48:02,14.9833317,0.0002432,70.0011,257.6769,277.5479,82.5404,5.679e-05,5.85e-06,0.0,0 STARLINK-5926,1 55944U 23037AG  23318.57502509  .00000585  00000-0  56790-4 0  9991,2 55944  70.0011 257.6769 0002432 277.5479  82.5404 14.98333170 37240,6950.183,96.107,573.738,570.358,0.0
55944.0,STARLINK-5926,PAYLOAD,2023-11-14 20:12:34,14.98320957,0.0002869,70.0014,257.0013,270.4934,89.5896,0.00017939,2.048e-05,0.0,0 STARLINK-5926,1 55944U 23037AG  23318.84206749  .00002048  00000-0  17939-3 0  9995,2 55944  70.0014 257.0013 0002869 270.4934  89.5896 14.98320957 37624,6950.221,96.108,574.08,570.092,0.0
55944.0,STARLINK-5926,PAYLOAD,2023-11-15 05:49:23,14.98327612,0.0002257,70.0013,255.9942,271.0421,89.0479,8.138e-05,8.78e-06,0.0,0 STARLINK-5926,1 55944U 23037AG  23319.24262782  .00000878  00000-0  81380-4 0  9990,2 55944  70.0013 255.9942 0002257 271.0421  89.0479 14.98327612 37346,6950.2,96.107,573.634,570.497,0.0
55944.0,STARLINK-5926,PAYLOAD,2023-11-16 02:39:07,14.98330356,0.0002349,70.0013,253.8062,275.2124,84.8767,-1.6379e-05,-2.88e-06,0.0,0 STARLINK-5926,1 55944U 23037AG  23320.11050734 -.00000288  00000-0 -16379-4 0  9993,2 55944  70.0013 253.8062 0002349 275.2124  84.8767 14.98330356 37818,6950.192,96.107,573.689,570.424,0.0
55944.0,STARLINK-5926,PAYLOAD,2023-11-16 05:51:23,14.98330963,0.0002302,70.0013,253.4691,276.7538,83.3359,-1.4127e-05,-2.61e-06,0.0,0 STARLINK-5926,1 55944U 23037AG  23320.24402708 -.00000261  00000-0 -14127-4 0  9999,2 55944  70.0013 253.4691 0002302 276.7538  83.3359 14.98330963 37495,6950.19,96.107,573.655,570.455,0.0
55944.0,STARLINK-5926,PAYLOAD,2023-11-17 02:41:09,14.98326214,0.0002207,70.0015,251.2835,273.7552,86.3355,-2.2943e-05,-3.67e-06,0.0,0 STARLINK-5926,1 55944U 23037AG  23321.11191043 -.00000367  00000-0 -22943-4 0  9995,2 55944  70.0015 251.2835 0002207 273.7552  86.3355 14.98326214 37965,6950.205,96.107,573.604,570.536,0.0
55944.0,STARLINK-5926,PAYLOAD,2023-11-17 12:17:57,14.9832754,0.0002168,70.0014,250.2711,276.9544,83.1368,-3.457e-05,-5.05e-06,0.0,0 STARLINK-5926,1 55944U 23037AG  23321.51247120 -.00000505  00000-0 -34570-4 0  9990,2 55944  70.0014 250.2711 0002168 276.9544  83.1368 14.98327540 37689,6950.2,96.107,573.572,570.559,0.0
55944.0,STARLINK-5926,PAYLOAD,2023-11-18 04:19:18,14.98305532,0.0002302,70.0024,248.5868,299.7905,60.3025,0.00037873,4.426e-05,0.0,0 STARLINK-5926,1 55944U 23037AG  23322.18007636  .00004426  00000-0  37873-3 0  9992,2 55944  70.0024 248.5868 0002302 299.7905  60.3025 14.98305532 38121,6950.269,96.109,573.734,570.534,0.0
55944.0,STARLINK-5926,PAYLOAD,2023-11-18 12:19:58,14.98331472,0.0001908,70.003,247.7442,306.1592,53.939,1.391e-05,7.3e-07,0.0,0 STARLINK-5926,1 55944U 23037AG  23322.51387036  .00000073  00000-0  13910-4 0  9995,2 55944  70.0030 247.7442 0001908 306.1592  53.9390 14.98331472 38173,6950.188,96.107,573.379,570.727,0.0
55944.0,STARLINK-5926,PAYLOAD,2023-11-18 18:44:30,14.98329201,0.000219,70.0028,247.0721,284.2806,75.811,9.3948e-05,1.028e-05,0.0,0 STARLINK-5926,1 55944U 23037AG  23322.78090577  .00001028  00000-0  93948-4 0  9995,2 55944  70.0028 247.0721 0002190 284.2806  75.8110 14.98329201 37877,6950.195,96.107,573.582,570.538,0.0
55944.0,STARLINK-5926,PAYLOAD,2023-11-19 02:45:11,14.98317209,0.0001962,70.0019,246.2304,279.4748,80.6189,-8.2466e-05,-1.076e-05,0.0,0 STARLINK-5926,1 55944U 23037AG  23323.11471702 -.00001076  00000-0 -82466-4 0  9994,2 55944  70.0019 246.2304 0001962 279.4748  80.6189 14.98317209 38261,6950.232,96.108,573.461,570.734,0.0
55944.0,STARLINK-5926,PAYLOAD,2023-11-19 04:21:18,14.98329583,0.0002187,70.0017,246.0614,278.6674,81.4237,5.3744e-05,5.48e-06,0.0,0 STARLINK-5926,1 55944U 23037AG  23323.18146577  .00000548  00000-0  53744-4 0  9998,2 55944  70.0017 246.0614 0002187 278.6674  81.4237 14.98329583 38272,6950.194,96.107,573.579,570.539,0.0
55944.0,STARLINK-5926,PAYLOAD,2023-11-19 21:58:47,14.9832671,0.0002284,70.0011,244.2109,273.8926,86.1971,-7.9085e-05,-1.036e-05,0.0,0 STARLINK-5926,1 55944U 23037AG  23323.91582958 -.00001036  00000-0 -79085-4 0  9997,2 55944  70.0011 244.2109 0002284 273.8926  86.1971 14.98326710 38041,6950.203,96.107,573.655,570.481,0.0
55944.0,STARLINK-5926,PAYLOAD,2023-11-20 01:10:58,14.98394852,0.0002612,70.0013,243.8731,276.0753,84.0109,0.00069485,8.221e-05,0.0,0 STARLINK-5926,1 55944U 23037AG  23324.04928951  .00008221  00000-0  69485-3 0  9992,2 55944  70.0013 243.8731 0002612 276.0753  84.0109 14.98394852 38409,6949.992,96.103,573.673,570.042,0.0
55944.0,STARLINK-5926,PAYLOAD,2023-11-20 04:23:19,14.98330173,0.000246,70.0011,243.5366,283.3804,76.708,-3.3978e-05,-4.98e-06,0.0,0 STARLINK-5926,1 55944U 23037AG  23324.18286662 -.00000498  00000-0 -33978-4 0  9992,2 55944  70.0011 243.5366 0002460 283.3804  76.7080 14.98330173 38421,6950.192,96.107,573.767,570.348,0.0
55944.0,STARLINK-5926,PAYLOAD,2023-11-20 12:23:59,14.98331363,0.0002573,70.0011,242.6954,278.275,81.8117,-1.6573e-05,-2.91e-06,0.0,0 STARLINK-5926,1 55944U 23037AG  23324.51666420 -.00000291  00000-0 -16573-4 0  9996,2 55944  70.0011 242.6954 0002573 278.2750  81.8117 14.98331363 38130,6950.189,96.107,573.842,570.265,0.0
55944.0,STARLINK-5926,PAYLOAD,2023-11-20 22:00:47,14.98333183,0.0002756,69.9997,241.6866,269.8163,90.268,-1.0252e-05,-2.15e-06,0.0,0 STARLINK-5926,1 55944U 23037AG  23324.91722093 -.00000215  00000-0 -10252-4 0  9993,2 55944  69.9997 241.6866 0002756 269.8163  90.2680 14.98333183 38195,6950.183,96.107,573.964,570.133,0.0
55944.0,STARLINK-5926,PAYLOAD,2023-11-21 02:49:11,14.98337707,0.000276,69.9996,241.1816,270.201,89.8832,1.9923e-05,1.45e-06,0.0,0 STARLINK-5926,1 55944U 23037AG  23325.11749653  .00000145  00000-0  19923-4 0  9991,2 55944  69.9996 241.1816 0002760 270.2010  89.8832 14.98337707 38566,6950.169,96.107,573.952,570.116,0.0
55944.0,STARLINK-5926,PAYLOAD,2023-11-21 04:25:19,14.98339324,0.0002752,69.9998,241.0133,270.0463,90.0381,3.9155e-05,3.74e-06,0.0,0 STARLINK-5926,1 55944U 23037AG  23325.18425465  .00000374  00000-0  39155-4 0  9993,2 55944  69.9998 241.0133 0002752 270.0463  90.0381 14.98339324 38234,6950.164,96.106,573.942,570.116,0.0
55944.0,STARLINK-5926,PAYLOAD,2023-11-21 20:26:41,14.98325604,0.000272,69.9998,239.3302,270.5458,89.5389,-1.029e-06,-1.05e-06,0.0,0 STARLINK-5926,1 55944U 23037AG  23325.85186344 -.00000105  00000-0 -10290-5 0  9991,2 55944  69.9998 239.3302 0002720 270.5458  89.5389 14.98325604 38334,6950.206,96.107,573.962,570.181,0.0
55944.0,STARLINK-5926,PAYLOAD,2023-11-22 02:51:12,14.98331455,0.0002622,70.0,238.6564,272.0288,88.0571,7.6091e-05,8.15e-06,0.0,0 STARLINK-5926,1 55944U 23037AG  23326.11889819  .00000815  00000-0  76091-4 0  9994,2 55944  70.0000 238.6564 0002622 272.0288  88.0571 14.98331455 38712,6950.188,96.107,573.876,570.231,0.0
55944.0,STARLINK-5926,PAYLOAD,2023-11-22 04:27:20,14.98334103,0.0002746,69.9999,238.4885,271.8167,88.2678,9.4119e-05,1.03e-05,0.0,0 STARLINK-5926,1 55944U 23037AG  23326.18565563  .00001030  00000-0  94119-4 0  9999,2 55944  69.9999 238.4885 0002746 271.8167  88.2678 14.98334103 38386,6950.18,96.107,573.954,570.137,0.0
55944.0,STARLINK-5926,PAYLOAD,2023-11-22 20:28:41,14.98334415,0.0002748,69.9997,236.8052,270.6245,89.4599,-2.144e-06,-1.19e-06,0.0,0 STARLINK-5926,1 55944U 23037AG  23326.85325607 -.00000119  00000-0 -21440-5 0  9993,2 55944  69.9997 236.8052 0002748 270.6245  89.4599 14.98334415 38480,6950.179,96.107,573.954,570.134,0.0
55944.0,STARLINK-5926,PAYLOAD,2023-11-23 02:53:13,14.98338949,0.0002249,70.0008,236.1337,266.9423,93.1479,7.2225e-05,7.69e-06,0.0,0 STARLINK-5926,1 55944U 23037AG  23327.12029049  .00000769  00000-0  72225-4 0  9990,2 55944  70.0008 236.1337 0002249 266.9423  93.1479 14.98338949 38864,6950.165,96.106,573.593,570.467,0.0
55944.0,STARLINK-5926,PAYLOAD,2023-11-23 04:29:21,14.9834019,0.0002262,70.0009,235.9658,264.6662,95.4239,8.4817e-05,9.19e-06,0.0,0 STARLINK-5926,1 55944U 23037AG  23327.18704881  .00000919  00000-0  84817-4 0  9997,2 55944  70.0009 235.9658 0002262 264.6662  95.4239 14.98340190 38537,6950.161,96.106,573.599,570.454,0.0
55944.0,STARLINK-5926,PAYLOAD,2023-11-23 18:54:35,14.98317527,0.0002997,69.9999,234.4485,273.1535,86.9281,-0.00010565,-1.353e-05,0.0,0 STARLINK-5926,1 55944U 23037AG  23327.78790740 -.00001353  00000-0 -10565-3 0  9995,2 55944  69.9999 234.4485 0002997 273.1535  86.9281 14.98317527 38960,6950.231,96.108,574.179,570.013,0.0
55944.0,STARLINK-5926,PAYLOAD,2023-11-23 22:06:51,14.98318899,0.0002906,69.9994,234.1119,274.6113,85.4714,-0.0001118,-1.426e-05,0.0,0 STARLINK-5926,1 55944U 23037AG  23327.92142782 -.00001426  00000-0 -11180-3 0  9993,2 55944  69.9994 234.1119 0002906 274.6113  85.4714 14.98318899 38647,6950.227,96.108,574.112,570.072,0.0
55944.0,STARLINK-5926,PAYLOAD,2023-11-24 02:55:15,14.98318872,0.0002711,69.9997,233.6065,268.8601,91.2248,-8.8368e-05,-1.147e-05,0.0,0 STARLINK-5926,1 55944U 23037AG  23328.12170788 -.00001147  00000-0 -88368-4 0  9996,2 55944  69.9997 233.6065 0002711 268.8601  91.2248 14.98318872 38676,6950.227,96.108,573.977,570.208,0.0
55944.0,STARLINK-5926,PAYLOAD,2023-11-24 18:56:35,14.98326675,0.0002596,69.9999,231.9242,264.0796,96.0067,-7.2385e-05,-9.56e-06,0.0,0 STARLINK-5926,1 55944U 23037AG  23328.78930478 -.00000956  00000-0 -72385-4 0  9997,2 55944  69.9999 231.9242 0002596 264.0796  96.0067 14.98326675 39112,6950.203,96.107,573.872,570.264,0.0
55944.0,STARLINK-5926,PAYLOAD,2023-11-24 22:08:52,14.98327074,0.0002807,69.9991,231.5863,266.8916,93.1922,-7.3828e-05,-9.74e-06,0.0,0 STARLINK-5926,1 55944U 23037AG  23328.92282490 -.00000974  00000-0 -73828-4 0  9990,2 55944  69.9991 231.5863 0002807 266.8916  93.1922 14.98327074 38793,6950.202,96.107,574.018,570.116,0.0
